[
  "TORO                    \r\n1 60530U 24149BQ  26196.12261126  .00000456  00000+0  45163-4 0  9996\r\n2 60530  97.6777 270.2691 0001138  99.1896 260.9454 14.96516440104130\r\n",
  "TORO3                   \r\n1 68481U 26067BT  26196.19701225  .00000117  00000+0  16977-4 0  9991\r\n2 68481  97.7687 154.1635 0002063 188.9413 171.1769 14.92166771 15904\r\n",
  "SATORO-T3               \r\n1 64589U 25135BP  26196.15127304  .00000834  00000+0  82689-4 0  9996\r\n2 64589  97.7739 310.3973 0003764 226.2972 133.7937 14.94436546 58082\r\n",
  "GEMINI-POLLUX           \r\n1 69000U 26100W   26196.15623366  .00000790  00000+0  82745-4 0  9995\r\n2 69000  97.7290  93.1101 0002139 109.3179 250.8271 14.92323525 10878\r\n",
  "FORMOSAT-2 (ROCSAT 2)   \r\n1 28254U 04018A   26195.88232007 -.00000268  00000+0 -14956-3 0  9992\r\n2 28254  98.8458 162.5145 0000853 205.4467 209.0137 14.01252116132633\r\n",
  "FORMOSAT-3 FM6          \r\n1 29047U 06011A   26195.56716860  .00000189  00000+0  86043-4 0  9994\r\n2 29047  71.9763 255.2219 0048706 192.5854 167.4072 14.31418441 58328\r\n",
  "FORMOSAT-3 FM1          \r\n1 29048U 06011B   26196.12024432  .00000164  00000+0  76929-4 0  9990\r\n2 29048  71.9650 162.4741 0041319 154.4292 205.8901 14.31407676 60777\r\n",
  "FORMOSAT-3 FM5          \r\n1 29049U 06011C   26195.82076655  .00000180  00000+0  82881-4 0  9993\r\n2 29049  72.0195 347.3738 0033336 161.5216 198.7142 14.31424269 56622\r\n",
  "FORMOSAT-3 FM3          \r\n1 29050U 06011D   26196.14306338  .00000487  00000+0  94804-4 0  9993\r\n2 29050  72.0122 251.7383 0044788 235.5438 124.1484 14.67015220 80473\r\n",
  "FORMOSAT-3 FM4          \r\n1 29051U 06011E   26196.12775287  .00000148  00000+0  69515-4 0  9990\r\n2 29051  72.0023 244.2366 0064737  40.7305 319.8646 14.31557554 59265\r\n",
  "FORMOSAT-3 FM2          \r\n1 29052U 06011F   26195.77580485  .00000190  00000+0  86092-4 0  9991\r\n2 29052  72.0338 325.8582 0037359 113.3389 247.1687 14.31638578 56733\r\n",
  "PACE                    \r\n1 40022U 14033N   26196.01009919  .00002521  00000+0  15494-3 0  9997\r\n2 40022  98.1244 202.5956 0007830 118.2398 241.9621 15.11071094657234\r\n",
  "FORMOSAT-5              \r\n1 42920U 17049A   26196.18982433  .00000043  00000+0  21928-4 0  9992\r\n2 42920  98.2246 270.8764 0011341   3.8512 356.2768 14.50907828470735\r\n",
  "FORMOSAT 7-3            \r\n1 44343U 19036E   26195.80707908  .00002587  00000+0  13444-3 0  9999\r\n2 44343  24.0000 348.4178 0000144 225.7106 134.3386 15.09992955387429\r\n",
  "FORMOSAT 7-1            \r\n1 44349U 19036L   26196.11706700  .00001292  00000+0  84693-4 0  9996\r\n2 44349  23.9965 204.0828 0000969 129.8047 230.2539 14.96611750388844\r\n",
  "FORMOSAT 7-4            \r\n1 44350U 19036M   26196.20632963  .00001328  00000+0  87770-4 0  9996\r\n2 44350  23.9978 265.5920 0001192 141.6749 218.3837 14.96609908388272\r\n",
  "FORMOSAT 7-2            \r\n1 44351U 19036N   26195.56196773  .00001502  00000+0  10275-3 0  9998\r\n2 44351  23.9992 324.2509 0000725 126.1449 233.9119 14.96607917387690\r\n",
  "FORMOSAT 7-6            \r\n1 44353U 19036Q   26196.02825992  .00001428  00000+0  96358-4 0  9998\r\n2 44353  23.9966 141.9137 0001316  73.0571 287.0074 14.96612380385998\r\n",
  "FORMOSAT 7-5            \r\n1 44358U 19036V   26196.00570424  .00001494  00000+0  10214-3 0  9997\r\n2 44358  23.9987  80.8187 0000399 130.3890 229.6646 14.96591580386528\r\n",
  "FORMOSAT-7R (TRITON)    \r\n1 58017U 23155B   26196.15429395  .00000698  00000+0  75968-4 0  9990\r\n2 58017  97.8352 277.3523 0001595  53.2631 306.8734 14.91194246150396\r\n",
  "NIGHTJAR                \r\n1 60535U 24149BV  26196.15985509  .00002216  00000+0  18691-3 0  9993\r\n2 60535  97.6839 272.4742 0002630  96.2848 263.8674 14.99169175147065\r\n",
  "IRIS-F3                 \r\n1 62619U 25009L   26196.16389171  .00004713  00000+0  17858-3 0  9996\r\n2 62619  97.4044 276.7917 0005634 208.5112 151.5820 15.27371860 83092\r\n",
  "IRIS-F2                 \r\n1 62684U 25009CD  26196.18118258  .00007911  00000+0  29773-3 0  9998\r\n2 62684  97.3891 275.6821 0004404 236.3040 123.7780 15.27381760140739\r\n",
  "FORMOSAT-8A             \r\n1 66666U 25276A   26196.14287081  .00000905  00000+0  75996-4 0  9990\r\n2 66666  97.6548 269.9648 0005595 129.9018 230.2698 15.00752246 34255\r\n",
  "LILIUM-2                \r\n1 66679U 25276P   26196.18816642  .00001499  00000+0  76777-4 0  9996\r\n2 66679  97.4145 268.6709 0004370 267.5340  92.5393 15.18098880 34641\r\n",
  "BLACK KITE-1            \r\n1 66741U 25276CD  26195.74722870  .00004598  00000+0  21062-3 0  9995\r\n2 66741  97.4237 269.0667 0004248 242.0202 118.0604 15.20973555 31910\r\n",
  "T.MICROSAT-1            \r\n1 66766U 25276DE  26196.16846584  .00003066  00000+0  14097-3 0  9997\r\n2 66766  97.4156 269.4618 0002266 100.3938 259.7553 15.21097452 34695\r\n",
  "LILIUM-3                \r\n1 66770U 25276DJ  26196.14493218  .00001348  00000+0  66436-4 0  9998\r\n2 66770  97.4236 269.4417 0003031 128.2889 231.8619 15.19640917 34670\r\n",
  "T.MICROSAT-2            \r\n1 68433U 26067T   26195.82084966  .00002881  00000+0  14645-3 0  9992\r\n2 68433  97.4582 153.7773 0004850 346.8449  13.2657 15.17647356 16128\r\n",
  "PARUS-6U1               \r\n1 68456U 26067AS  26195.88022860  .00002977  00000+0  15062-3 0  9998\r\n2 68456  97.4567 153.8255 0004761 349.6604  10.4531 15.17792429 16130\r\n",
  "BLACK KITE-2            \r\n1 68474U 26067BL  26195.83368374  .00001456  00000+0  14660-3 0  9990\r\n2 68474  97.7562 153.7168 0003261 123.2783 236.8750 14.92698794 15855\r\n",
  "PEARL-1B                \r\n1 68980U 26100A   26196.17031175  .00000863  00000+0  93548-4 0  9998\r\n2 68980  97.7332  92.9689 0008740  60.8445 299.3646 14.90665472 10850\r\n",
  "PEARL-1A                \r\n1 68990U 26100L   26196.15002267  .00000666  00000+0  72849-4 0  9999\r\n2 68990  97.7278  92.9538 0006903  75.2459 284.9524 14.91057583 10862\r\n"
]